[{"OBJECT_NAME":"2026-052G","OBJECT_ID":"2026-052G","EPOCH":"2026-03-17T01:53:37.740192","MEAN_MOTION":15.1055693,"ECCENTRICITY":0.00091783,"INCLINATION":97.5399,"RA_OF_ASC_NODE":152.3153,"ARG_OF_PERICENTER":262.1816,"MEAN_ANOMALY":97.8372,"EPHEMERIS_TYPE":0,"CLASSIFICATION_TYPE":"U","NORAD_CAT_ID":68204,"ELEMENT_SET_NO":999,"REV_AT_EPOCH":14,"BSTAR":6.2951704e-5,"MEAN_MOTION_DOT":9.75e-6,"MEAN_MOTION_DDOT":0},{"OBJECT_NAME":"KZ-11 R/B","OBJECT_ID":"2026-052H","EPOCH":"2026-03-17T13:57:43.423776","MEAN_MOTION":14.66538175,"ECCENTRICITY":0.05498503,"INCLINATION":97.3426,"RA_OF_ASC_NODE":153.0194,"ARG_OF_PERICENTER":8.5041,"MEAN_ANOMALY":352.5027,"EPHEMERIS_TYPE":0,"CLASSIFICATION_TYPE":"U","NORAD_CAT_ID":68205,"ELEMENT_SET_NO":999,"REV_AT_EPOCH":21,"BSTAR":0.00017183889,"MEAN_MOTION_DOT":0.00011258,"MEAN_MOTION_DDOT":1.641944e-6}]
