2026-052G               
1 68204U 26052G   26076.07890903  .00000975  00000+0  62952-4 0  9990
2 68204  97.5399 152.3153 0009178 262.1816  97.8372 15.10556930   141
2026-052H               
1 68205U 26052H   26076.58175259  .00011258  16419-5  17184-3 0  9996
2 68205  97.3426 153.0194 0549850   8.5041 352.5027 14.66538175   219
